NORAD_CAT_ID,OBJECT_NAME,OBJECT_TYPE,EPOCH,MEAN_MOTION,ECCENTRICITY,INCLINATION,RA_OF_ASC_NODE,ARG_OF_PERICENTER,MEAN_ANOMALY,BSTAR,MEAN_MOTION_DOT,MEAN_MOTION_DDOT,TLE_LINE0,TLE_LINE1,TLE_LINE2,SEMIMAJOR_AXIS,PERIOD,APOGEE,PERIGEE,DECAYED
52678.0,STARLINK-4074,PAYLOAD,2023-07-29 01:09:54,15.08845647,0.0001106,53.217,109.6717,89.4401,270.6718,2.2385e-05,6.9e-07,0.0,0 STARLINK-4074,1 52678U 22053Y   23210.04855069  .00000069  00000-0  22385-4 0  9994,2 52678  53.2170 109.6717 0001106  89.4401 270.6718 15.08845647 66622,6917.863,95.437,540.493,538.963,0.0
52678.0,STARLINK-4074,PAYLOAD,2023-07-29 17:03:46,15.08838142,0.0001047,53.2166,106.6983,106.3798,253.7309,0.00010125,1.324e-05,0.0,0 STARLINK-4074,1 52678U 22053Y   23210.71095382  .00001324  00000-0  10125-3 0  9995,2 52678  53.2166 106.6983 0001047 106.3798 253.7309 15.08838142 66722,6917.886,95.438,540.475,539.027,0.0
52678.0,STARLINK-4074,PAYLOAD,2023-07-31 02:26:51,15.08847281,0.0001066,53.2167,100.453,90.0506,270.0608,6.9775e-06,-1.77e-06,0.0,0 STARLINK-4074,1 52678U 22053Y   23212.10199029 -.00000177  00000-0  69775-5 0  9996,2 52678  53.2167 100.4530 0001066  90.0506 270.0608 15.08847281 66931,6917.858,95.437,540.461,538.986,0.0
52678.0,STARLINK-4074,PAYLOAD,2023-07-31 23:06:52,15.08844726,0.0001358,53.218,96.5881,99.1662,260.9484,-5.474e-05,-1.159e-05,0.0,0 STARLINK-4074,1 52678U 22053Y   23212.96311291 -.00001159  00000-0 -54740-4 0  9994,2 52678  53.2180  96.5881 0001358  99.1662 260.9484 15.08844726 67063,6917.866,95.437,540.67,538.791,0.0
52678.0,STARLINK-4074,PAYLOAD,2023-08-01 16:36:07,15.0883656,0.0001204,53.2181,93.3171,85.1316,274.9814,1.6781e-05,-2.1e-07,0.0,0 STARLINK-4074,1 52678U 22053Y   23213.69175663 -.00000021  00000-0  16781-4 0  9995,2 52678  53.2181  93.3171 0001204  85.1316 274.9814 15.08836560 67173,6917.891,95.438,540.589,538.923,0.0
52678.0,STARLINK-4074,PAYLOAD,2023-08-02 02:08:26,15.0884359,9.45e-05,53.2171,91.5315,91.0599,269.0501,6.3148e-05,7.17e-06,0.0,0 STARLINK-4074,1 52678U 22053Y   23214.08919011  .00000717  00000-0  63148-4 0  9992,2 52678  53.2171  91.5315 0000945  91.0599 269.0501 15.08843590 67238,6917.869,95.437,540.388,539.081,0.0
52678.0,STARLINK-4074,PAYLOAD,2023-08-02 08:29:58,15.08838657,9.03e-05,53.2172,90.3416,90.9048,269.2048,-1.2653e-05,-4.89e-06,0.0,0 STARLINK-4074,1 52678U 22053Y   23214.35415482 -.00000489  00000-0 -12653-4 0  9998,2 52678  53.2172  90.3416 0000903  90.9048 269.2048 15.08838657 67279,6917.884,95.438,540.374,539.125,0.0
52678.0,STARLINK-4074,PAYLOAD,2023-08-03 01:59:13,15.08846205,0.0001067,53.218,87.0741,105.7928,254.3181,5.4415e-05,5.78e-06,0.0,0 STARLINK-4074,1 52678U 22053Y   23215.08279018  .00000578  00000-0  54415-4 0  9991,2 52678  53.2180  87.0741 0001067 105.7928 254.3181 15.08846205 67389,6917.861,95.437,540.465,538.988,0.0
52678.0,STARLINK-4074,PAYLOAD,2023-08-03 17:53:05,15.08832251,6.61e-05,53.2174,84.0967,118.4837,241.6222,-2.169e-05,-6.33e-06,0.0,0 STARLINK-4074,1 52678U 22053Y   23215.74520283 -.00000633  00000-0 -21690-4 0  9990,2 52678  53.2174  84.0967 0000661 118.4837 241.6222 15.08832251 67480,6917.904,95.438,540.226,539.312,0.0
52678.0,STARLINK-4074,PAYLOAD,2023-08-04 00:14:37,15.08841128,8.07e-05,53.2169,82.9085,104.4205,255.6876,5.6505e-05,6.12e-06,0.0,0 STARLINK-4074,1 52678U 22053Y   23216.01015598  .00000612  00000-0  56505-4 0  9997,2 52678  53.2169  82.9085 0000807 104.4205 255.6876 15.08841128 67526,6917.877,95.437,540.3,539.184,0.0
52678.0,STARLINK-4074,PAYLOAD,2023-08-04 14:33:06,15.08835285,8.56e-05,53.2171,80.2342,97.8233,262.2856,4.5066e-05,4.3e-06,0.0,0 STARLINK-4074,1 52678U 22053Y   23216.60632124  .00000430  00000-0  45066-4 0  9990,2 52678  53.2171  80.2342 0000856  97.8233 262.2856 15.08835285 67615,6917.895,95.438,540.352,539.168,0.0
52678.0,STARLINK-4074,PAYLOAD,2023-08-05 00:05:24,15.08849456,8.07e-05,53.2172,78.4496,95.2525,264.8559,5.1019e-05,5.25e-06,0.0,0 STARLINK-4074,1 52678U 22053Y   23217.00375273  .00000525  00000-0  51019-4 0  9994,2 52678  53.2172  78.4496 0000807  95.2525 264.8559 15.08849456 67676,6917.851,95.437,540.275,539.158,0.0
52678.0,STARLINK-4074,PAYLOAD,2023-08-05 19:10:02,15.0884128,8.6e-05,53.2172,74.8816,87.7889,272.3201,5.6688e-05,6.15e-06,0.0,0 STARLINK-4074,1 52678U 22053Y   23217.79863828  .00000615  00000-0  56688-4 0  9995,2 52678  53.2172  74.8816 0000860  87.7889 272.3201 15.08841280 67798,6917.876,95.437,540.336,539.147,0.0
52678.0,STARLINK-4074,PAYLOAD,2023-08-06 14:14:40,15.0883449,0.0001136,53.2172,71.3114,97.4176,262.6946,-6.6055e-05,-1.339e-05,0.0,0 STARLINK-4074,1 52678U 22053Y   23218.59352834 -.00001339  00000-0 -66055-4 0  9999,2 52678  53.2172  71.3114 0001136  97.4176 262.6946 15.08834490 67912,6917.897,95.438,540.548,538.976,0.0
52678.0,STARLINK-4074,PAYLOAD,2023-08-07 20:26:59,15.08847686,7.26e-05,53.2179,65.6614,99.091,261.0164,4.7476e-05,4.68e-06,0.0,0 STARLINK-4074,1 52678U 22053Y   23219.85207955  .00000468  00000-0  47476-4 0  9998,2 52678  53.2179  65.6614 0000726  99.0910 261.0164 15.08847686 68106,6917.857,95.437,540.224,539.22,0.0
52678.0,STARLINK-4074,PAYLOAD,2023-08-09 01:03:56,15.0884413,7.27e-05,53.2183,60.3075,86.8329,273.2746,0.00018547,2.666e-05,0.0,0 STARLINK-4074,1 52678U 22053Y   23221.04439946  .00002666  00000-0  18547-3 0  9997,2 52678  53.2183  60.3075 0000727  86.8329 273.2746 15.08844130 68284,6917.868,95.437,540.236,539.23,0.0
52678.0,STARLINK-4074,PAYLOAD,2023-08-09 05:50:06,15.08826787,7.17e-05,53.2181,59.4169,86.5782,273.5292,1.8684e-05,1e-07,0.0,0 STARLINK-4074,1 52678U 22053Y   23221.24313519  .00000010  00000-0  18684-4 0  9990,2 52678  53.2181  59.4169 0000717  86.5782 273.5292 15.08826787 68315,6917.921,95.438,540.282,539.29,0.0
52678.0,STARLINK-4074,PAYLOAD,2023-08-09 15:22:25,15.08836029,4.78e-05,53.2182,57.6308,134.6368,225.4663,-8.5346e-05,-1.645e-05,0.0,0 STARLINK-4074,1 52678U 22053Y   23221.64057189 -.00001645  00000-0 -85346-4 0  9998,2 52678  53.2182  57.6308 0000478 134.6368 225.4663 15.08836029 68374,6917.893,95.438,540.088,539.427,0.0
52678.0,STARLINK-4074,PAYLOAD,2023-08-09 23:19:20,15.08846861,6.11e-05,53.2183,56.1444,79.0924,281.0137,4.9665e-06,-2.09e-06,0.0,0 STARLINK-4074,1 52678U 22053Y   23221.97176271 -.00000209  00000-0  49665-5 0  9997,2 52678  53.2183  56.1444 0000611  79.0924 281.0137 15.08846861 68424,6917.859,95.437,540.147,539.302,0.0
52678.0,STARLINK-4074,PAYLOAD,2023-08-10 23:10:07,15.08843812,7.54e-05,53.2186,51.6841,68.5299,291.5774,7.286e-06,-1.72e-06,0.0,0 STARLINK-4074,1 52678U 22053Y   23222.96536425 -.00000172  00000-0  72860-5 0  9990,2 52678  53.2186  51.6841 0000754  68.5299 291.5774 15.08843812 68576,6917.869,95.437,540.255,539.212,0.0
52678.0,STARLINK-4074,PAYLOAD,2023-08-11 05:31:40,15.08838334,7.69e-05,53.2184,50.4944,73.996,286.1117,-3.7071e-05,-8.78e-06,0.0,0 STARLINK-4074,1 52678U 22053Y   23223.23032950 -.00000878  00000-0 -37071-4 0  9993,2 52678  53.2184  50.4944 0000769  73.9960 286.1117 15.08838334 68615,6917.885,95.438,540.282,539.218,0.0
52678.0,STARLINK-4074,PAYLOAD,2023-08-11 23:00:54,15.08847644,7.06e-05,53.217,47.2251,86.5413,273.566,8.4108e-05,1.051e-05,0.0,0 STARLINK-4074,1 52678U 22053Y   23223.95896211  .00001051  00000-0  84108-4 0  9995,2 52678  53.2170  47.2251 0000706  86.5413 273.5660 15.08847644 68728,6917.857,95.437,540.21,539.234,0.0
52678.0,STARLINK-4074,PAYLOAD,2023-08-12 05:22:27,15.08839665,5.92e-05,53.2182,46.0343,86.8009,273.3051,2.4724e-05,1.06e-06,0.0,0 STARLINK-4074,1 52678U 22053Y   23224.22392816  .00000106  00000-0  24724-4 0  9996,2 52678  53.2182  46.0343 0000592  86.8009 273.3051 15.08839665 68767,6917.881,95.438,540.156,539.337,0.0
52678.0,STARLINK-4074,PAYLOAD,2023-08-13 05:13:13,15.08848109,4.33e-05,53.2141,41.5739,104.7801,255.324,5.5216e-06,-2e-06,0.0,0 STARLINK-4074,1 52678U 22053Y   23225.21752244 -.00000200  00000-0  55216-5 0  9998,2 52678  53.2141  41.5739 0000433 104.7801 255.3240 15.08848109 68915,6917.856,95.437,540.02,539.421,0.0
52678.0,STARLINK-4074,PAYLOAD,2023-08-13 17:56:19,15.0883562,5.64e-05,53.2158,39.1944,100.9762,259.1294,0.00010594,1.399e-05,0.0,0 STARLINK-4074,1 52678U 22053Y   23225.74744985  .00001399  00000-0  10594-3 0  9996,2 52678  53.2158  39.1944 0000564 100.9762 259.1294 15.08835620 68996,6917.894,95.438,540.149,539.369,0.0
52678.0,STARLINK-4074,PAYLOAD,2023-08-13 22:42:28,15.08846246,6.83e-05,53.2181,38.3039,91.6847,268.4223,5.9496e-05,6.6e-06,0.0,0 STARLINK-4074,1 52678U 22053Y   23225.94616463  .00000660  00000-0  59496-4 0  9992,2 52678  53.2181  38.3039 0000683  91.6847 268.4223 15.08846246 69026,6917.861,95.437,540.199,539.254,0.0
52678.0,STARLINK-4074,PAYLOAD,2023-08-14 05:04:01,15.08839666,7.48e-05,53.2186,37.1144,83.82,276.2877,-2.613e-05,-7.03e-06,0.0,0 STARLINK-4074,1 52678U 22053Y   23226.21113081 -.00000703  00000-0 -26130-4 0  9990,2 52678  53.2186  37.1144 0000748  83.8200 276.2877 15.08839666 69067,6917.881,95.438,540.264,539.229,0.0
52678.0,STARLINK-4074,PAYLOAD,2023-08-14 22:33:15,15.08845531,8.2e-05,53.2181,33.8459,60.0579,300.0494,7.2884e-05,8.73e-06,0.0,0 STARLINK-4074,1 52678U 22053Y   23226.93976520  .00000873  00000-0  72884-4 0  9997,2 52678  53.2181  33.8459 0000820  60.0579 300.0494 15.08845531 69172,6917.863,95.437,540.296,539.161,0.0
52678.0,STARLINK-4074,PAYLOAD,2023-08-16 11:07:08,15.08828416,0.0001294,53.2147,27.0029,91.9958,268.1182,0.00016863,2.396e-05,0.0,0 STARLINK-4074,1 52678U 22053Y   23228.46329665  .00002396  00000-0  16863-3 0  9995,2 52678  53.2147  27.0029 0001294  91.9958 268.1182 15.08828416 69409,6917.916,95.438,540.676,538.886,0.0
52678.0,STARLINK-4074,PAYLOAD,2023-08-16 17:28:40,15.08843379,0.0001204,53.2151,25.8143,85.9649,274.1481,6.2539e-05,7.08e-06,0.0,0 STARLINK-4074,1 52678U 22053Y   23228.72824779  .00000708  00000-0  62539-4 0  9997,2 52678  53.2151  25.8143 0001204  85.9649 274.1481 15.08843379 69446,6917.87,95.437,540.568,538.902,0.0
